start=new Date('2023-01-12T00:00:00.000Z').valueOf();
sats=[{"APOAPSIS":"541.393","ARG_OF_PERICENTER":"64.7013","CENTER_NAME":"EARTH","COUNTRY_CODE":"US","OBJECT_NAME":"STARLINK-3269","SEMIMAJOR_AXIS":"6917.866","ELEMENT_SET_NO":"999","GP_ID":"222825205","EPHEMERIS_TYPE":"0","NORAD_CAT_ID":"50194","MEAN_MOTION_DOT":"0.00004672","REV_AT_EPOCH":"6272","TLE_LINE2":"2 50194  53.2147  15.0095 0002403  64.7013 295.4228 15.08844700 62729","MEAN_MOTION_DDOT":"0.0000000000000","INCLINATION":"53.2147","SITE":"AFWTR","OBJECT_TYPE":"PAYLOAD","LAUNCH_DATE":"2021-12-18","MEAN_MOTION":"15.08844700","PERIAPSIS":"538.069","REF_FRAME":"TEME","MEAN_ANOMALY":"295.4228","BSTAR":"0.00031138000000","TIME_SYSTEM":"UTC","CLASSIFICATION_TYPE":"U","RCS_SIZE":"LARGE","FILE":"3740419","MEAN_ELEMENT_THEORY":"SGP4","PERIOD":"95.437","EPOCH":"2023-01-11T17:19:06.535488","DECAY_DATE":null,"RA_OF_ASC_NODE":"15.0095","ECCENTRICITY":"0.00024030","TLE_LINE1":"1 50194U 21125AQ  23011.72160342  .00004672  00000-0  31138-3 0  9990","OBJECT_ID":"2021-125AQ"},{"OBJECT_TYPE":"PAYLOAD","PERIAPSIS":"537.902","LAUNCH_DATE":"2021-12-18","MEAN_MOTION":"15.08834051","REF_FRAME":"TEME","CLASSIFICATION_TYPE":"U","BSTAR":"0.00082367000000","MEAN_ANOMALY":"307.1032","TIME_SYSTEM":"UTC","RCS_SIZE":"LARGE","MEAN_ELEMENT_THEORY":"SGP4","FILE":"3740419","EPOCH":"2023-01-11T17:35:00.172032","PERIOD":"95.438","RA_OF_ASC_NODE":"14.9554","DECAY_DATE":null,"OBJECT_ID":"2021-125AR","TLE_LINE1":"1 50195U 21125AR  23011.73264088  .00012843  00000-0  82367-3 0  9993","ECCENTRICITY":"0.00026910","COUNTRY_CODE":"US","CENTER_NAME":"EARTH","ARG_OF_PERICENTER":"53.0206","APOAPSIS":"541.625","OBJECT_NAME":"STARLINK-3266","GP_ID":"222825957","ELEMENT_SET_NO":"999","SEMIMAJOR_AXIS":"6917.899","MEAN_MOTION_DOT":"0.00012843","REV_AT_EPOCH":"6267","NORAD_CAT_ID":"50195","EPHEMERIS_TYPE":"0","TLE_LINE2":"2 50195  53.2149  14.9554 0002691  53.0206 307.1032 15.08834051 62670","SITE":"AFWTR","INCLINATION":"53.2149","MEAN_MOTION_DDOT":"0.0000000000000"},{"RCS_SIZE":"LARGE","BSTAR":"0.00021396000000","MEAN_ANOMALY":"323.8398","TIME_SYSTEM":"UTC","CLASSIFICATION_TYPE":"U","LAUNCH_DATE":"2021-12-18","MEAN_MOTION":"15.08850601","PERIAPSIS":"538.000","REF_FRAME":"TEME","OBJECT_TYPE":"PAYLOAD","OBJECT_ID":"2021-125AS","TLE_LINE1":"1 50196U 21125AS  23011.31678102  .00003120  00000-0  21396-3 0  9997","ECCENTRICITY":"0.00024760","RA_OF_ASC_NODE":"16.8156","DECAY_DATE":null,"PERIOD":"95.437","EPOCH":"2023-01-11T07:36:09.880128","MEAN_ELEMENT_THEORY":"SGP4","FILE":"3740054","GP_ID":"222767001","ELEMENT_SET_NO":"999","SEMIMAJOR_AXIS":"6917.848","OBJECT_NAME":"STARLINK-3263","COUNTRY_CODE":"US","APOAPSIS":"541.426","CENTER_NAME":"EARTH","ARG_OF_PERICENTER":"36.2761","INCLINATION":"53.2171","MEAN_MOTION_DDOT":"0.0000000000000","SITE":"AFWTR","TLE_LINE2":"2 50196  53.2171  16.8156 0002476  36.2761 323.8398 15.08850601 62618","NORAD_CAT_ID":"50196","REV_AT_EPOCH":"6261","MEAN_MOTION_DOT":"0.00003120","EPHEMERIS_TYPE":"0"},{"RA_OF_ASC_NODE":"15.0270","DECAY_DATE":null,"OBJECT_ID":"2021-125AT","TLE_LINE1":"1 50197U 21125AT  23011.71789775  .00001237  00000-0  95783-4 0  9990","ECCENTRICITY":"0.00026610","MEAN_ELEMENT_THEORY":"SGP4","FILE":"3740419","PERIOD":"95.437","EPOCH":"2023-01-11T17:13:46.365600","TIME_SYSTEM":"UTC","BSTAR":"0.00009578300000","MEAN_ANOMALY":"338.8878","CLASSIFICATION_TYPE":"U","RCS_SIZE":"LARGE","OBJECT_TYPE":"PAYLOAD","LAUNCH_DATE":"2021-12-18","PERIAPSIS":"537.879","REF_FRAME":"TEME","MEAN_MOTION":"15.08848345","TLE_LINE2":"2 50197  53.2174  15.0270 0002661  21.2224 338.8878 15.08848345 62727","INCLINATION":"53.2174","MEAN_MOTION_DDOT":"0.0000000000000","SITE":"AFWTR","NORAD_CAT_ID":"50197","REV_AT_EPOCH":"6272","MEAN_MOTION_DOT":"0.00001237","EPHEMERIS_TYPE":"0","OBJECT_NAME":"STARLINK-3267","ELEMENT_SET_NO":"999","GP_ID":"222824956","SEMIMAJOR_AXIS":"6917.855","COUNTRY_CODE":"US","APOAPSIS":"541.561","CENTER_NAME":"EARTH","ARG_OF_PERICENTER":"21.2224"},{"COUNTRY_CODE":"US","APOAPSIS":"541.612","CENTER_NAME":"EARTH","ARG_OF_PERICENTER":"36.1964","OBJECT_NAME":"STARLINK-3264","ELEMENT_SET_NO":"999","GP_ID":"222824706","SEMIMAJOR_AXIS":"6917.967","NORAD_CAT_ID":"50198","REV_AT_EPOCH":"6267","MEAN_MOTION_DOT":"-0.00007038","EPHEMERIS_TYPE":"0","TLE_LINE2":"2 50198  53.2176  15.0816 0002574  36.1964 323.9202 15.08811743 62677","INCLINATION":"53.2176","MEAN_MOTION_DDOT":"0.0000000000000","SITE":"AFWTR","OBJECT_TYPE":"PAYLOAD","MEAN_MOTION":"15.08811743","LAUNCH_DATE":"2021-12-18","PERIAPSIS":"538.051","REF_FRAME":"TEME","BSTAR":"-0.00042481000000","TIME_SYSTEM":"UTC","MEAN_ANOMALY":"323.9202","CLASSIFICATION_TYPE":"U","RCS_SIZE":"LARGE","MEAN_ELEMENT_THEORY":"SGP4","FILE":"3740419","PERIOD":"95.439","EPOCH":"2023-01-11T16:52:36.273504","RA_OF_ASC_NODE":"15.0816","DECAY_DATE":null,"TLE_LINE1":"1 50198U 21125AU  23011.70319761 -.00007038  00000-0 -42481-3 0  9997","OBJECT_ID":"2021-125AU","ECCENTRICITY":"0.00025740"},{"DECAY_DATE":null,"RA_OF_ASC_NODE":"16.9492","ECCENTRICITY":"0.00028680","OBJECT_ID":"2021-125AV","TLE_LINE1":"1 50199U 21125AV  23011.28734167  .00009088  00000-0  58803-3 0  9992","FILE":"3740054","MEAN_ELEMENT_THEORY":"SGP4","PERIOD":"95.436","EPOCH":"2023-01-11T06:53:46.320288","BSTAR":"0.00058803000000","TIME_SYSTEM":"UTC","MEAN_ANOMALY":"330.2355","CLASSIFICATION_TYPE":"U","RCS_SIZE":"LARGE","OBJECT_TYPE":"PAYLOAD","LAUNCH_DATE":"2021-12-18","REF_FRAME":"TEME","PERIAPSIS":"537.696","MEAN_MOTION":"15.08861304","TLE_LINE2":"2 50199  53.2183  16.9492 0002868  29.8801 330.2355 15.08861304 62602","MEAN_MOTION_DDOT":"0.0000000000000","INCLINATION":"53.2183","SITE":"AFWTR","EPHEMERIS_TYPE":"0","NORAD_CAT_ID":"50199","REV_AT_EPOCH":"6260","MEAN_MOTION_DOT":"0.00009088","OBJECT_NAME":"STARLINK-3270","SEMIMAJOR_AXIS":"6917.815","ELEMENT_SET_NO":"999","GP_ID":"222766250","APOAPSIS":"541.664","CENTER_NAME":"EARTH","ARG_OF_PERICENTER":"29.8801","COUNTRY_CODE":"US"},{"EPOCH":"2023-01-11T17:03:10.733760","PERIOD":"95.437","MEAN_ELEMENT_THEORY":"SGP4","FILE":"3740419","OBJECT_ID":"2021-125AW","TLE_LINE1":"1 50200U 21125AW  23011.71054090  .00001195  00000-0  93164-4 0  9994","ECCENTRICITY":"0.00026640","RA_OF_ASC_NODE":"15.0546","DECAY_DATE":null,"LAUNCH_DATE":"2021-12-18","REF_FRAME":"TEME","PERIAPSIS":"537.889","MEAN_MOTION":"15.08844335","OBJECT_TYPE":"PAYLOAD","RCS_SIZE":"LARGE","CLASSIFICATION_TYPE":"U","MEAN_ANOMALY":"335.8561","BSTAR":"0.00009316400000","TIME_SYSTEM":"UTC","MEAN_MOTION_DOT":"0.00001195","REV_AT_EPOCH":"6268","NORAD_CAT_ID":"50200","EPHEMERIS_TYPE":"0","SITE":"AFWTR","MEAN_MOTION_DDOT":"0.0000000000000","INCLINATION":"53.2161","TLE_LINE2":"2 50200  53.2161  15.0546 0002664  24.2556 335.8561 15.08844335 62684","COUNTRY_CODE":"US","CENTER_NAME":"EARTH","ARG_OF_PERICENTER":"24.2556","APOAPSIS":"541.575","GP_ID":"222826204","ELEMENT_SET_NO":"999","SEMIMAJOR_AXIS":"6917.867","OBJECT_NAME":"STARLINK-3235"},{"PERIOD":"95.437","EPOCH":"2023-01-11T16:47:16.583136","MEAN_ELEMENT_THEORY":"SGP4","FILE":"3740419","TLE_LINE1":"1 50201U 21125AX  23011.69949749 -.00000321  00000-0 -20373-5 0  9991","OBJECT_ID":"2021-125AX","ECCENTRICITY":"0.00028710","RA_OF_ASC_NODE":"15.1067","DECAY_DATE":null,"LAUNCH_DATE":"2021-12-18","MEAN_MOTION":"15.08844368","PERIAPSIS":"537.746","REF_FRAME":"TEME","OBJECT_TYPE":"PAYLOAD","RCS_SIZE":"LARGE","MEAN_ANOMALY":"334.4533","BSTAR":"-0.00000203730000","TIME_SYSTEM":"UTC","CLASSIFICATION_TYPE":"U","NORAD_CAT_ID":"50201","REV_AT_EPOCH":"6267","MEAN_MOTION_DOT":"-0.00000321","EPHEMERIS_TYPE":"0","MEAN_MOTION_DDOT":"0.0000000000000","INCLINATION":"53.2159","SITE":"AFWTR","TLE_LINE2":"2 50201  53.2159  15.1067 0002871  25.6601 334.4533 15.08844368 62676","COUNTRY_CODE":"US","APOAPSIS":"541.718","CENTER_NAME":"EARTH","ARG_OF_PERICENTER":"25.6601","ELEMENT_SET_NO":"999","GP_ID":"222824457","SEMIMAJOR_AXIS":"6917.867","OBJECT_NAME":"STARLINK-3255"},{"EPHEMERIS_TYPE":"0","NORAD_CAT_ID":"50202","REV_AT_EPOCH":"6269","MEAN_MOTION_DOT":"0.00004168","INCLINATION":"53.2179","MEAN_MOTION_DDOT":"0.0000000000000","SITE":"AFWTR","TLE_LINE2":"2 50202  53.2179  14.2800 0001650  47.9584 312.1548 15.08848620 62691","APOAPSIS":"540.860","CENTER_NAME":"EARTH","ARG_OF_PERICENTER":"47.9584","COUNTRY_CODE":"US","SEMIMAJOR_AXIS":"6917.854","ELEMENT_SET_NO":"999","GP_ID":"222825206","OBJECT_NAME":"STARLINK-3256","PERIOD":"95.437","EPOCH":"2023-01-11T21:06:56.839392","FILE":"3740419","MEAN_ELEMENT_THEORY":"SGP4","ECCENTRICITY":"0.00016500","OBJECT_ID":"2021-125AY","TLE_LINE1":"1 50202U 21125AY  23011.87982453  .00004168  00000-0  27975-3 0  9995","DECAY_DATE":null,"RA_OF_ASC_NODE":"14.2800","PERIAPSIS":"538.578","LAUNCH_DATE":"2021-12-18","REF_FRAME":"TEME","MEAN_MOTION":"15.08848620","OBJECT_TYPE":"PAYLOAD","RCS_SIZE":"LARGE","BSTAR":"0.00027975000000","MEAN_ANOMALY":"312.1548","TIME_SYSTEM":"UTC","CLASSIFICATION_TYPE":"U"},{"TLE_LINE2":"2 50203  53.2147  16.8597 0001683 102.3967 257.7213 15.08846148 62679","MEAN_MOTION_DDOT":"0.0000000000000","INCLINATION":"53.2147","SITE":"AFWTR","NORAD_CAT_ID":"50203","REV_AT_EPOCH":"6267","MEAN_MOTION_DOT":"0.00003614","EPHEMERIS_TYPE":"0","OBJECT_NAME":"STARLINK-3257","ELEMENT_SET_NO":"999","GP_ID":"222765751","SEMIMAJOR_AXIS":"6917.862","COUNTRY_CODE":"US","APOAPSIS":"540.891","ARG_OF_PERICENTER":"102.3967","CENTER_NAME":"EARTH","RA_OF_ASC_NODE":"16.8597","DECAY_DATE":null,"OBJECT_ID":"2021-125AZ","TLE_LINE1":"1 50203U 21125AZ  23011.30943763  .00003614  00000-0  24503-3 0  9994","ECCENTRICITY":"0.00016830","MEAN_ELEMENT_THEORY":"SGP4","FILE":"3740054","PERIOD":"95.437","EPOCH":"2023-01-11T07:25:35.411232","TIME_SYSTEM":"UTC","BSTAR":"0.00024503000000","MEAN_ANOMALY":"257.7213","CLASSIFICATION_TYPE":"U","RCS_SIZE":"LARGE","OBJECT_TYPE":"PAYLOAD","PERIAPSIS":"538.562","LAUNCH_DATE":"2021-12-18","REF_FRAME":"TEME","MEAN_MOTION":"15.08846148"}];
